[{"OBJECT_NAME":"STARLINK-30401","OBJECT_ID":"2023-138L","EPOCH":"2026-03-09T22:00:01.999584","MEAN_MOTION":15.26659419,"ECCENTRICITY":0.0001719,"INCLINATION":43.0004,"RA_OF_ASC_NODE":233.1094,"ARG_OF_PERICENTER":286.8065,"MEAN_ANOMALY":317.9681,"EPHEMERIS_TYPE":0,"CLASSIFICATION_TYPE":"U","NORAD_CAT_ID":57818,"ELEMENT_SET_NO":999,"REV_AT_EPOCH":572,"BSTAR":0.0040413151,"MEAN_MOTION_DOT":0.00109498,"MEAN_MOTION_DDOT":0},{"OBJECT_NAME":"NUSAT-50 (NANCY ROMAN)","OBJECT_ID":"2024-149AB","EPOCH":"2026-03-09T19:15:16.765632","MEAN_MOTION":15.29713355,"ECCENTRICITY":0.00025229,"INCLINATION":97.3817,"RA_OF_ASC_NODE":150.7693,"ARG_OF_PERICENTER":238.0469,"MEAN_ANOMALY":122.0527,"EPHEMERIS_TYPE":0,"CLASSIFICATION_TYPE":"U","NORAD_CAT_ID":60493,"ELEMENT_SET_NO":999,"REV_AT_EPOCH":8693,"BSTAR":0.0004225155,"MEAN_MOTION_DOT":0.00012094,"MEAN_MOTION_DDOT":0}]
